<?xml version="1.0" encoding="UTF-8"?>
<ndm xmlns:xsi="http://www.w3.org/2001/XMLSchema-instance" xsi:noNamespaceSchemaLocation="https://sanaregistry.org/r/ndmxml_unqualified/ndmxml-2.0.0-master-2.0.xsd">
<omm id="CCSDS_OMM_VERS" version="2.0">
<header><CREATION_DATE/><ORIGINATOR/></header><body><segment><metadata><OBJECT_NAME>IRIDIUM 921 [-]</OBJECT_NAME><OBJECT_ID>1997-034E</OBJECT_ID><CENTER_NAME>EARTH</CENTER_NAME><REF_FRAME>TEME</REF_FRAME><TIME_SYSTEM>UTC</TIME_SYSTEM><MEAN_ELEMENT_THEORY>SGP4</MEAN_ELEMENT_THEORY></metadata><data><meanElements><EPOCH>2024-04-21T15:06:08.405280</EPOCH><MEAN_MOTION>15.35383446</MEAN_MOTION><ECCENTRICITY>.0005967</ECCENTRICITY><INCLINATION>86.3801</INCLINATION><RA_OF_ASC_NODE>316.0494</RA_OF_ASC_NODE><ARG_OF_PERICENTER>102.8713</ARG_OF_PERICENTER><MEAN_ANOMALY>257.3206</MEAN_ANOMALY></meanElements><tleParameters><EPHEMERIS_TYPE>0</EPHEMERIS_TYPE><CLASSIFICATION_TYPE>U</CLASSIFICATION_TYPE><NORAD_CAT_ID>24873</NORAD_CAT_ID><ELEMENT_SET_NO>999</ELEMENT_SET_NO><REV_AT_EPOCH>46649</REV_AT_EPOCH><BSTAR>.13417E-2</BSTAR><MEAN_MOTION_DOT>.46344E-3</MEAN_MOTION_DOT><MEAN_MOTION_DDOT>0</MEAN_MOTION_DDOT></tleParameters></data></segment></body></omm>
<omm id="CCSDS_OMM_VERS" version="2.0">
<header><CREATION_DATE/><ORIGINATOR/></header><body><segment><metadata><OBJECT_NAME>IRIDIUM 26 [-]</OBJECT_NAME><OBJECT_ID>1997-043A</OBJECT_ID><CENTER_NAME>EARTH</CENTER_NAME><REF_FRAME>TEME</REF_FRAME><TIME_SYSTEM>UTC</TIME_SYSTEM><MEAN_ELEMENT_THEORY>SGP4</MEAN_ELEMENT_THEORY></metadata><data><meanElements><EPOCH>2024-04-21T21:36:32.919264</EPOCH><MEAN_MOTION>14.36296528</MEAN_MOTION><ECCENTRICITY>.0002277</ECCENTRICITY><INCLINATION>86.3904</INCLINATION><RA_OF_ASC_NODE>287.3873</RA_OF_ASC_NODE><ARG_OF_PERICENTER>86.9827</ARG_OF_PERICENTER><MEAN_ANOMALY>273.1630</MEAN_ANOMALY></meanElements><tleParameters><EPHEMERIS_TYPE>0</EPHEMERIS_TYPE><CLASSIFICATION_TYPE>U</CLASSIFICATION_TYPE><NORAD_CAT_ID>24903</NORAD_CAT_ID><ELEMENT_SET_NO>999</ELEMENT_SET_NO><REV_AT_EPOCH>39625</REV_AT_EPOCH><BSTAR>.51661E-3</BSTAR><MEAN_MOTION_DOT>.1528E-4</MEAN_MOTION_DOT><MEAN_MOTION_DDOT>0</MEAN_MOTION_DDOT></tleParameters></data></segment></body></omm>
<omm id="CCSDS_OMM_VERS" version="2.0">
<header><CREATION_DATE/><ORIGINATOR/></header><body><segment><metadata><OBJECT_NAME>IRIDIUM 22 [-]</OBJECT_NAME><OBJECT_ID>1997-043E</OBJECT_ID><CENTER_NAME>EARTH</CENTER_NAME><REF_FRAME>TEME</REF_FRAME><TIME_SYSTEM>UTC</TIME_SYSTEM><MEAN_ELEMENT_THEORY>SGP4</MEAN_ELEMENT_THEORY></metadata><data><meanElements><EPOCH>2024-04-21T23:34:27.136992</EPOCH><MEAN_MOTION>14.35188233</MEAN_MOTION><ECCENTRICITY>.0002094</ECCENTRICITY><INCLINATION>86.3908</INCLINATION><RA_OF_ASC_NODE>290.5479</RA_OF_ASC_NODE><ARG_OF_PERICENTER>91.1368</ARG_OF_PERICENTER><MEAN_ANOMALY>269.0068</MEAN_ANOMALY></meanElements><tleParameters><EPHEMERIS_TYPE>0</EPHEMERIS_TYPE><CLASSIFICATION_TYPE>U</CLASSIFICATION_TYPE><NORAD_CAT_ID>24907</NORAD_CAT_ID><ELEMENT_SET_NO>999</ELEMENT_SET_NO><REV_AT_EPOCH>39633</REV_AT_EPOCH><BSTAR>.50223E-3</BSTAR><MEAN_MOTION_DOT>.1454E-4</MEAN_MOTION_DOT><MEAN_MOTION_DDOT>0</MEAN_MOTION_DDOT></tleParameters></data></segment></body></omm>
<omm id="CCSDS_OMM_VERS" version="2.0">
<header><CREATION_DATE/><ORIGINATOR/></header><body><segment><metadata><OBJECT_NAME>DUMMY MASS 1 [-]</OBJECT_NAME><OBJECT_ID>1997-048A</OBJECT_ID><CENTER_NAME>EARTH</CENTER_NAME><REF_FRAME>TEME</REF_FRAME><TIME_SYSTEM>UTC</TIME_SYSTEM><MEAN_ELEMENT_THEORY>SGP4</MEAN_ELEMENT_THEORY></metadata><data><meanElements><EPOCH>2024-04-21T15:15:17.529984</EPOCH><MEAN_MOTION>14.86147951</MEAN_MOTION><ECCENTRICITY>.0006356</ECCENTRICITY><INCLINATION>86.3341</INCLINATION><RA_OF_ASC_NODE>330.1357</RA_OF_ASC_NODE><ARG_OF_PERICENTER>180.0009</ARG_OF_PERICENTER><MEAN_ANOMALY>180.1216</MEAN_ANOMALY></meanElements><tleParameters><EPHEMERIS_TYPE>0</EPHEMERIS_TYPE><CLASSIFICATION_TYPE>U</CLASSIFICATION_TYPE><NORAD_CAT_ID>24925</NORAD_CAT_ID><ELEMENT_SET_NO>999</ELEMENT_SET_NO><REV_AT_EPOCH>44250</REV_AT_EPOCH><BSTAR>.13809E-3</BSTAR><MEAN_MOTION_DOT>.1238E-4</MEAN_MOTION_DOT><MEAN_MOTION_DDOT>0</MEAN_MOTION_DDOT></tleParameters></data></segment></body></omm>
<omm id="CCSDS_OMM_VERS" version="2.0">
<header><CREATION_DATE/><ORIGINATOR/></header><body><segment><metadata><OBJECT_NAME>DUMMY MASS 2 [-]</OBJECT_NAME><OBJECT_ID>1997-048B</OBJECT_ID><CENTER_NAME>EARTH</CENTER_NAME><REF_FRAME>TEME</REF_FRAME><TIME_SYSTEM>UTC</TIME_SYSTEM><MEAN_ELEMENT_THEORY>SGP4</MEAN_ELEMENT_THEORY></metadata><data><meanElements><EPOCH>2024-04-21T15:54:48.059136</EPOCH><MEAN_MOTION>14.85906977</MEAN_MOTION><ECCENTRICITY>.0006649</ECCENTRICITY><INCLINATION>86.3343</INCLINATION><RA_OF_ASC_NODE>331.6556</RA_OF_ASC_NODE><ARG_OF_PERICENTER>193.8202</ARG_OF_PERICENTER><MEAN_ANOMALY>166.2841</MEAN_ANOMALY></meanElements><tleParameters><EPHEMERIS_TYPE>0</EPHEMERIS_TYPE><CLASSIFICATION_TYPE>U</CLASSIFICATION_TYPE><NORAD_CAT_ID>24926</NORAD_CAT_ID><ELEMENT_SET_NO>999</ELEMENT_SET_NO><REV_AT_EPOCH>44229</REV_AT_EPOCH><BSTAR>.1398E-3</BSTAR><MEAN_MOTION_DOT>.1246E-4</MEAN_MOTION_DOT><MEAN_MOTION_DDOT>0</MEAN_MOTION_DDOT></tleParameters></data></segment></body></omm>
<omm id="CCSDS_OMM_VERS" version="2.0">
<header><CREATION_DATE/><ORIGINATOR/></header><body><segment><metadata><OBJECT_NAME>IRIDIUM 29 [-]</OBJECT_NAME><OBJECT_ID>1997-051A</OBJECT_ID><CENTER_NAME>EARTH</CENTER_NAME><REF_FRAME>TEME</REF_FRAME><TIME_SYSTEM>UTC</TIME_SYSTEM><MEAN_ELEMENT_THEORY>SGP4</MEAN_ELEMENT_THEORY></metadata><data><meanElements><EPOCH>2024-04-21T22:23:32.270496</EPOCH><MEAN_MOTION>14.35643598</MEAN_MOTION><ECCENTRICITY>.000207</ECCENTRICITY><INCLINATION>86.3935</INCLINATION><RA_OF_ASC_NODE>320.5064</RA_OF_ASC_NODE><ARG_OF_PERICENTER>94.8476</ARG_OF_PERICENTER><MEAN_ANOMALY>265.2957</MEAN_ANOMALY></meanElements><tleParameters><EPHEMERIS_TYPE>0</EPHEMERIS_TYPE><CLASSIFICATION_TYPE>U</CLASSIFICATION_TYPE><NORAD_CAT_ID>24944</NORAD_CAT_ID><ELEMENT_SET_NO>999</ELEMENT_SET_NO><REV_AT_EPOCH>39281</REV_AT_EPOCH><BSTAR>.42019E-3</BSTAR><MEAN_MOTION_DOT>.1231E-4</MEAN_MOTION_DOT><MEAN_MOTION_DDOT>0</MEAN_MOTION_DDOT></tleParameters></data></segment></body></omm>
<omm id="CCSDS_OMM_VERS" version="2.0">
<header><CREATION_DATE/><ORIGINATOR/></header><body><segment><metadata><OBJECT_NAME>IRIDIUM 33 [-]</OBJECT_NAME><OBJECT_ID>1997-051C</OBJECT_ID><CENTER_NAME>EARTH</CENTER_NAME><REF_FRAME>TEME</REF_FRAME><TIME_SYSTEM>UTC</TIME_SYSTEM><MEAN_ELEMENT_THEORY>SGP4</MEAN_ELEMENT_THEORY></metadata><data><meanElements><EPOCH>2024-04-22T02:47:54.790368</EPOCH><MEAN_MOTION>14.34319099</MEAN_MOTION><ECCENTRICITY>.0008656</ECCENTRICITY><INCLINATION>86.3849</INCLINATION><RA_OF_ASC_NODE>319.6844</RA_OF_ASC_NODE><ARG_OF_PERICENTER>26.8663</ARG_OF_PERICENTER><MEAN_ANOMALY>333.2979</MEAN_ANOMALY></meanElements><tleParameters><EPHEMERIS_TYPE>0</EPHEMERIS_TYPE><CLASSIFICATION_TYPE>U</CLASSIFICATION_TYPE><NORAD_CAT_ID>24946</NORAD_CAT_ID><ELEMENT_SET_NO>999</ELEMENT_SET_NO><REV_AT_EPOCH>39238</REV_AT_EPOCH><BSTAR>.29818E-3</BSTAR><MEAN_MOTION_DOT>.857E-5</MEAN_MOTION_DOT><MEAN_MOTION_DDOT>0</MEAN_MOTION_DDOT></tleParameters></data></segment></body></omm>
<omm id="CCSDS_OMM_VERS" version="2.0">
<header><CREATION_DATE/><ORIGINATOR/></header><body><segment><metadata><OBJECT_NAME>IRIDIUM 28 [-]</OBJECT_NAME><OBJECT_ID>1997-051E</OBJECT_ID><CENTER_NAME>EARTH</CENTER_NAME><REF_FRAME>TEME</REF_FRAME><TIME_SYSTEM>UTC</TIME_SYSTEM><MEAN_ELEMENT_THEORY>SGP4</MEAN_ELEMENT_THEORY></metadata><data><meanElements><EPOCH>2024-04-22T02:43:23.260224</EPOCH><MEAN_MOTION>14.36593251</MEAN_MOTION><ECCENTRICITY>.0002379</ECCENTRICITY><INCLINATION>86.3936</INCLINATION><RA_OF_ASC_NODE>318.1868</RA_OF_ASC_NODE><ARG_OF_PERICENTER>79.2184</ARG_OF_PERICENTER><MEAN_ANOMALY>280.9281</MEAN_ANOMALY></meanElements><tleParameters><EPHEMERIS_TYPE>0</EPHEMERIS_TYPE><CLASSIFICATION_TYPE>U</CLASSIFICATION_TYPE><NORAD_CAT_ID>24948</NORAD_CAT_ID><ELEMENT_SET_NO>999</ELEMENT_SET_NO><REV_AT_EPOCH>39344</REV_AT_EPOCH><BSTAR>.4168E-3</BSTAR><MEAN_MOTION_DOT>.1244E-4</MEAN_MOTION_DOT><MEAN_MOTION_DDOT>0</MEAN_MOTION_DDOT></tleParameters></data></segment></body></omm>

</ndm>
